[Satellite]
VERSION=1.1
NAME=NOAA 9 [P]
NICKNAME=NOAA 9 [P]
TLE1=1 15427U 84123A   19316.90232584  .00000001  00000-0  23187-4 0  9996
TLE2=2 15427  98.9107 265.7165 0014587 340.0534  70.4488 14.16081499802500
STATUS=3
